{
  "last_updated": "2025-12-18T06:00:02.069664",
  "satellites": {
    "98592": {
      "name": "DUTHSat-2",
      "norad_id": "98592",
      "tle": "1 64530U 25135C   25351.76588249  .00013148  00000-0  58325-3 0  9992\n2 64530  97.4502 103.6456 0006171 102.1974 257.9953 15.21695641 27291",
      "epoch": "2025-12-17T18:22:52.247136",
      "fetched_at": "2025-12-18T06:00:02.193177",
      "source": "satnogs"
    },
    "98530": {
      "name": "LAMARR",
      "norad_id": "98530",
      "tle": "1 98530U          25351.16401264 +.00013256 +00000+0 +67347-3 0 00307\n2 98530  97.4377  62.8249 0006096 292.8579  67.2011 15.16987841002793",
      "epoch": "2025-12-17T03:56:10.692096",
      "fetched_at": "2025-12-18T06:00:02.238080",
      "source": "satnogs"
    },
    "98529": {
      "name": "DIRAC",
      "norad_id": "98529",
      "tle": "1 98529U          25351.16096049 +.00014013 +00000+0 +70601-3 0 00259\n2 98529  97.4349  62.8230 0005144 299.8205  60.2517 15.17274080002795",
      "epoch": "2025-12-17T03:51:46.986336",
      "fetched_at": "2025-12-18T06:00:02.285686",
      "source": "satnogs"
    },
    "98518": {
      "name": "MICE-1",
      "norad_id": "98518",
      "tle": "1 98518U 25276Z   25345.50761227  .00000000  00000-0  85911-3 0 00002\n2 98518  97.4491  57.2978 0004401 288.2412 177.0173 15.17054724 01824",
      "epoch": "2025-12-11T12:10:57.700128",
      "fetched_at": "2025-12-18T06:00:02.331883",
      "source": "satnogs"
    }
  },
  "fetch_log": [
    {
      "norad_id": "98592",
      "name": "DUTHSat-2",
      "status": "success",
      "source": "satnogs",
      "timestamp": "2025-12-18T06:00:02.193181"
    },
    {
      "norad_id": "98530",
      "name": "LAMARR",
      "status": "success",
      "source": "satnogs",
      "timestamp": "2025-12-18T06:00:02.238084"
    },
    {
      "norad_id": "98529",
      "name": "DIRAC",
      "status": "success",
      "source": "satnogs",
      "timestamp": "2025-12-18T06:00:02.285697"
    },
    {
      "norad_id": "98518",
      "name": "MICE-1",
      "status": "success",
      "source": "satnogs",
      "timestamp": "2025-12-18T06:00:02.331887"
    }
  ]
}